stk.v.4.3 

BEGIN Ephemeris 
 
NumberOfEphemerisPoints		146 
ScenarioEpoch	    1 Sep 2020 10:10: 8.779022098 
InterpolationMethod		Lagrange 
InterpolationOrder		5 
CentralBody				Earth 
CoordinateSystem			TEME 
CoordinateSystemEpoch	  1 Sep 2020 10:10: 8.779022098 
DistanceUnit			Kilometers 
 
EphemerisTimePosVel 
 
       0.00000000   -6687.03038767   -2514.19797854       0.03738983  0.173215394 -0.435967784  7.456021626
 END Ephemeris 
